[
  {
    "OBJECT_NAME": "MOZHAYETS 4 (RS-22)",
    "OBJECT_ID": "2003-042A",
    "EPOCH": "2025-05-04T04:26:57.302016",
    "MEAN_MOTION": 14.72254991,
    "ECCENTRICITY": 0.0012608,
    "INCLINATION": 98.3259,
    "RA_OF_ASC_NODE": 292.7657,
    "ARG_OF_PERICENTER": 122.6435,
    "MEAN_ANOMALY": 352.4299,
    "EPHEMERIS_TYPE": 0,
    "CLASSIFICATION_TYPE": "U",
    "NORAD_CAT_ID": 27939,
    "ELEMENT_SET_NO": 999,
    "REV_AT_EPOCH": 15547,
    "BSTAR": 0.00035344,
    "MEAN_MOTION_DOT": 2.181e-05,
    "MEAN_MOTION_DDOT": 0
  },
  {
    "OBJECT_NAME": "CUBESAT XI-V",
    "OBJECT_ID": "2005-043F",
    "EPOCH": "2025-05-03T20:28:54.943680",
    "MEAN_MOTION": 14.70883784,
    "ECCENTRICITY": 0.0015643,
    "INCLINATION": 98.2447,
    "RA_OF_ASC_NODE": 267.7586,
    "ARG_OF_PERICENTER": 66.4591,
    "MEAN_ANOMALY": 293.8256,
    "EPHEMERIS_TYPE": 0,
    "CLASSIFICATION_TYPE": "U",
    "NORAD_CAT_ID": 28895,
    "ELEMENT_SET_NO": 999,
    "REV_AT_EPOCH": 4154,
    "BSTAR": 0.00049705,
    "MEAN_MOTION_DOT": 2.996e-05,
    "MEAN_MOTION_DDOT": 0
  },
  {
    "OBJECT_NAME": "CUTE-1.7+APD II (CO-65)",
    "OBJECT_ID": "2008-021C",
    "EPOCH": "2025-05-03T21:16:02.348256",
    "MEAN_MOTION": 15.04032154,
    "ECCENTRICITY": 0.0009343,
    "INCLINATION": 97.7819,
    "RA_OF_ASC_NODE": 94.7954,
    "ARG_OF_PERICENTER": 347.9106,
    "MEAN_ANOMALY": 12.1894,
    "EPHEMERIS_TYPE": 0,
    "CLASSIFICATION_TYPE": "U",
    "NORAD_CAT_ID": 32785,
    "ELEMENT_SET_NO": 999,
    "REV_AT_EPOCH": 92356,
    "BSTAR": 0.00055973,
    "MEAN_MOTION_DOT": 7.688e-05,
    "MEAN_MOTION_DDOT": 0
  },
  {
    "OBJECT_NAME": "SEEDS II (CO-66)",
    "OBJECT_ID": "2008-021J",
    "EPOCH": "2025-05-03T20:41:21.068160",
    "MEAN_MOTION": 15.17782909,
    "ECCENTRICITY": 0.0001774,
    "INCLINATION": 97.7269,
    "RA_OF_ASC_NODE": 103.1155,
    "ARG_OF_PERICENTER": 331.4344,
    "MEAN_ANOMALY": 28.6791,
    "EPHEMERIS_TYPE": 0,
    "CLASSIFICATION_TYPE": "U",
    "NORAD_CAT_ID": 32791,
    "ELEMENT_SET_NO": 999,
    "REV_AT_EPOCH": 92492,
    "BSTAR": 0.00086323,
    "MEAN_MOTION_DOT": 0.00017401,
    "MEAN_MOTION_DDOT": 0
  },
  {
    "OBJECT_NAME": "YUBILEINY (RS-30)",
    "OBJECT_ID": "2008-025A",
    "EPOCH": "2025-05-04T04:28:25.823136",
    "MEAN_MOTION": 12.43163541,
    "ECCENTRICITY": 0.0020477,
    "INCLINATION": 82.5022,
    "RA_OF_ASC_NODE": 249.8076,
    "ARG_OF_PERICENTER": 124.651,
    "MEAN_ANOMALY": 235.6504,
    "EPHEMERIS_TYPE": 0,
    "CLASSIFICATION_TYPE": "U",
    "NORAD_CAT_ID": 32953,
    "ELEMENT_SET_NO": 999,
    "REV_AT_EPOCH": 76901,
    "BSTAR": 0.00027615,
    "MEAN_MOTION_DOT": 4.8e-07,
    "MEAN_MOTION_DDOT": 0
  },
  {
    "OBJECT_NAME": "KKS-1 (KISEKI)",
    "OBJECT_ID": "2009-002H",
    "EPOCH": "2025-05-03T20:25:09.167520",
    "MEAN_MOTION": 14.81501319,
    "ECCENTRICITY": 0.0008335,
    "INCLINATION": 98.1214,
    "RA_OF_ASC_NODE": 35.418,
    "ARG_OF_PERICENTER": 165.3218,
    "MEAN_ANOMALY": 194.8238,
    "EPHEMERIS_TYPE": 0,
    "CLASSIFICATION_TYPE": "U",
    "NORAD_CAT_ID": 33499,
    "ELEMENT_SET_NO": 999,
    "REV_AT_EPOCH": 87555,
    "BSTAR": 0.00034649,
    "MEAN_MOTION_DOT": 2.663e-05,
    "MEAN_MOTION_DDOT": 0
  },
  {
    "OBJECT_NAME": "SWISSCUBE",
    "OBJECT_ID": "2009-051B",
    "EPOCH": "2025-05-03T15:43:21.578304",
    "MEAN_MOTION": 14.61240809,
    "ECCENTRICITY": 0.0008126,
    "INCLINATION": 98.4336,
    "RA_OF_ASC_NODE": 19.1938,
    "ARG_OF_PERICENTER": 52.7645,
    "MEAN_ANOMALY": 307.4295,
    "EPHEMERIS_TYPE": 0,
    "CLASSIFICATION_TYPE": "U",
    "NORAD_CAT_ID": 35932,
    "ELEMENT_SET_NO": 999,
    "REV_AT_EPOCH": 82932,
    "BSTAR": 0.00046276,
    "MEAN_MOTION_DOT": 2.234e-05,
    "MEAN_MOTION_DDOT": 0
  },
  {
    "OBJECT_NAME": "BEESAT-1",
    "OBJECT_ID": "2009-051C",
    "EPOCH": "2025-05-03T22:58:35.749344",
    "MEAN_MOTION": 14.60669697,
    "ECCENTRICITY": 0.0006658,
    "INCLINATION": 98.4271,
    "RA_OF_ASC_NODE": 19.9208,
    "ARG_OF_PERICENTER": 63.9971,
    "MEAN_ANOMALY": 296.1914,
    "EPHEMERIS_TYPE": 0,
    "CLASSIFICATION_TYPE": "U",
    "NORAD_CAT_ID": 35933,
    "ELEMENT_SET_NO": 999,
    "REV_AT_EPOCH": 82942,
    "BSTAR": 0.00035503,
    "MEAN_MOTION_DOT": 1.68e-05,
    "MEAN_MOTION_DDOT": 0
  },
  {
    "OBJECT_NAME": "ITUPSAT1",
    "OBJECT_ID": "2009-051E",
    "EPOCH": "2025-05-04T03:35:48.425856",
    "MEAN_MOTION": 14.59473735,
    "ECCENTRICITY": 0.0008937,
    "INCLINATION": 98.4365,
    "RA_OF_ASC_NODE": 19.6871,
    "ARG_OF_PERICENTER": 69.3993,
    "MEAN_ANOMALY": 290.8164,
    "EPHEMERIS_TYPE": 0,
    "CLASSIFICATION_TYPE": "U",
    "NORAD_CAT_ID": 35935,
    "ELEMENT_SET_NO": 999,
    "REV_AT_EPOCH": 82908,
    "BSTAR": 0.00033808,
    "MEAN_MOTION_DOT": 1.556e-05,
    "MEAN_MOTION_DDOT": 0
  },
  {
    "OBJECT_NAME": "XIWANG-1 (HOPE-1)",
    "OBJECT_ID": "2009-072B",
    "EPOCH": "2025-05-03T20:01:16.205376",
    "MEAN_MOTION": 13.16423761,
    "ECCENTRICITY": 0.0008175,
    "INCLINATION": 100.3463,
    "RA_OF_ASC_NODE": 80.3906,
    "ARG_OF_PERICENTER": 89.2001,
    "MEAN_ANOMALY": 271.0048,
    "EPHEMERIS_TYPE": 0,
    "CLASSIFICATION_TYPE": "U",
    "NORAD_CAT_ID": 36122,
    "ELEMENT_SET_NO": 999,
    "REV_AT_EPOCH": 73914,
    "BSTAR": 0.00015045,
    "MEAN_MOTION_DOT": 1.3e-07,
    "MEAN_MOTION_DDOT": 0
  },
  {
    "OBJECT_NAME": "O/OREOS (USA 219)",
    "OBJECT_ID": "2010-062C",
    "EPOCH": "2025-05-03T20:59:03.656832",
    "MEAN_MOTION": 14.91266782,
    "ECCENTRICITY": 0.0013691,
    "INCLINATION": 71.9712,
    "RA_OF_ASC_NODE": 285.7009,
    "ARG_OF_PERICENTER": 132.3298,
    "MEAN_ANOMALY": 227.9033,
    "EPHEMERIS_TYPE": 0,
    "CLASSIFICATION_TYPE": "U",
    "NORAD_CAT_ID": 37224,
    "ELEMENT_SET_NO": 999,
    "REV_AT_EPOCH": 5557,
    "BSTAR": 0.00046083,
    "MEAN_MOTION_DOT": 4.539e-05,
    "MEAN_MOTION_DDOT": 0
  },
  {
    "OBJECT_NAME": "JUGNU",
    "OBJECT_ID": "2011-058B",
    "EPOCH": "2025-05-03T18:15:35.509824",
    "MEAN_MOTION": 14.13589577,
    "ECCENTRICITY": 0.0018535,
    "INCLINATION": 19.9611,
    "RA_OF_ASC_NODE": 275.4701,
    "ARG_OF_PERICENTER": 235.3884,
    "MEAN_ANOMALY": 152.3188,
    "EPHEMERIS_TYPE": 0,
    "CLASSIFICATION_TYPE": "U",
    "NORAD_CAT_ID": 37839,
    "ELEMENT_SET_NO": 999,
    "REV_AT_EPOCH": 70102,
    "BSTAR": 0.00017986,
    "MEAN_MOTION_DOT": 6.11e-06,
    "MEAN_MOTION_DDOT": 0
  },
  {
    "OBJECT_NAME": "SRMSAT",
    "OBJECT_ID": "2011-058D",
    "EPOCH": "2025-05-04T00:58:23.594304",
    "MEAN_MOTION": 14.11423321,
    "ECCENTRICITY": 0.0011706,
    "INCLINATION": 19.9733,
    "RA_OF_ASC_NODE": 15.6605,
    "ARG_OF_PERICENTER": 23.4531,
    "MEAN_ANOMALY": 9.3191,
    "EPHEMERIS_TYPE": 0,
    "CLASSIFICATION_TYPE": "U",
    "NORAD_CAT_ID": 37841,
    "ELEMENT_SET_NO": 999,
    "REV_AT_EPOCH": 70016,
    "BSTAR": 0.00014628,
    "MEAN_MOTION_DOT": 5.33e-06,
    "MEAN_MOTION_DDOT": 0
  },
  {
    "OBJECT_NAME": "STRAND-1",
    "OBJECT_ID": "2013-009E",
    "EPOCH": "2025-05-03T11:42:48.614688",
    "MEAN_MOTION": 14.36788424,
    "ECCENTRICITY": 0.0009122,
    "INCLINATION": 98.3829,
    "RA_OF_ASC_NODE": 309.1585,
    "ARG_OF_PERICENTER": 23.4463,
    "MEAN_ANOMALY": 336.7137,
    "EPHEMERIS_TYPE": 0,
    "CLASSIFICATION_TYPE": "U",
    "NORAD_CAT_ID": 39090,
    "ELEMENT_SET_NO": 999,
    "REV_AT_EPOCH": 63822,
    "BSTAR": 0.00022608,
    "MEAN_MOTION_DOT": 6.25e-06,
    "MEAN_MOTION_DDOT": 0
  }
]