MOZHAYETS 4 (RS-22)     
1 27939U 03042A   25124.18538544  .00002181  00000+0  35344-3 0  9994
2 27939  98.3259 292.7657 0012608 122.6435 352.4299 14.72254991155476
CUBESAT XI-V            
1 28895U 05043F   25123.85341370  .00002996  00000+0  49705-3 0  9991
2 28895  98.2447 267.7586 0015643  66.4591 293.8256 14.70883784 41548
CUTE-1.7+APD II (CO-65) 
1 32785U 08021C   25123.88613829  .00007688  00000+0  55973-3 0  9994
2 32785  97.7819  94.7954 0009343 347.9106  12.1894 15.04032154923560
SEEDS II (CO-66)        
1 32791U 08021J   25123.86204940  .00017401  00000+0  86323-3 0  9996
2 32791  97.7269 103.1155 0001774 331.4344  28.6791 15.17782909924929
YUBILEINY (RS-30)       
1 32953U 08025A   25124.18640999  .00000048  00000+0  27615-3 0  9992
2 32953  82.5022 249.8076 0020477 124.6510 235.6504 12.43163541769016
KKS-1 (KISEKI)          
1 33499U 09002H   25123.85080055  .00002663  00000+0  34649-3 0  9998
2 33499  98.1214  35.4180 0008335 165.3218 194.8238 14.81501319875559
SWISSCUBE               
1 35932U 09051B   25123.65511086  .00002234  00000+0  46276-3 0  9990
2 35932  98.4336  19.1938 0008126  52.7645 307.4295 14.61240809829323
BEESAT-1                
1 35933U 09051C   25123.95735821  .00001680  00000+0  35503-3 0  9994
2 35933  98.4271  19.9208 0006658  63.9971 296.1914 14.60669697829426
ITUPSAT1                
1 35935U 09051E   25124.14986604  .00001556  00000+0  33808-3 0  9993
2 35935  98.4365  19.6871 0008937  69.3993 290.8164 14.59473735829085
XIWANG-1 (HOPE-1)       
1 36122U 09072B   25123.83421534  .00000013  00000+0  15045-3 0  9996
2 36122 100.3463  80.3906 0008175  89.2001 271.0048 13.16423761739140
O/OREOS (USA 219)       
1 37224U 10062C   25123.87434788  .00004539  00000+0  46083-3 0  9993
2 37224  71.9712 285.7009 0013691 132.3298 227.9033 14.91266782 55570
JUGNU                   
1 37839U 11058B   25123.76082766  .00000611  00000+0  17986-3 0  9991
2 37839  19.9611 275.4701 0018535 235.3884 152.3188 14.13589577701028
SRMSAT                  
1 37841U 11058D   25124.04055086  .00000533  00000+0  14628-3 0  9994
2 37841  19.9733  15.6605 0011706  23.4531   9.3191 14.11423321700162
STRAND-1                
1 39090U 13009E   25123.48806267  .00000625  00000+0  22608-3 0  9991
2 39090  98.3829 309.1585 0009122  23.4463 336.7137 14.36788424638227
